SPACEBEE-7              
1 43816U 18099BL  25103.60660313  .00047074  00000+0  15027-2 0  9993
2 43816  97.5007 172.9159 0004971 314.2120  45.8712 15.32325063348068
